{"type": "FeatureCollection", "features": [{"type": "Feature", "properties": {"norad_id": 66549, "name": "SHIJIAN-28 (SJ-28)", "group": "last-30-days", "lat": -2.9396207507617773, "lon": 131.02539777866923, "alt_km": 35786.98496225093, "timestamp": "2025-12-21T18:54:57.221037+00:00", "meta": {"OBJECT_NAME": "SHIJIAN-28 (SJ-28)", "OBJECT_ID": "2025-277A", "EPOCH": "2025-12-21T13:30:11.828160", "MEAN_MOTION": 1.00267374, "ECCENTRICITY": 0.00010441, "INCLINATION": 4.9971, "RA_OF_ASC_NODE": 274.8185, "ARG_OF_PERICENTER": 135.9422, "MEAN_ANOMALY": 358.9665, "EPHEMERIS_TYPE": 0, "CLASSIFICATION_TYPE": "U", "NORAD_CAT_ID": 66549, "ELEMENT_SET_NO": 999, "REV_AT_EPOCH": 37, "BSTAR": 0, "MEAN_MOTION_DOT": -3.33e-06, "MEAN_MOTION_DDOT": 0}, "tle": {"line1": "1 66549U 25277A   25355.56263690 -.00000333  00000+0  00000+0 0  9998", "line2": "2 66549   4.9971 274.8185 0001044 135.9422 358.9665  1.00267374   374"}}, "geometry": {"type": "Point", "coordinates": [131.02539777866923, -2.9396207507617773]}}, {"type": "Feature", "properties": {"norad_id": 66550, "name": "CZ-7A R/B", "group": "last-30-days", "lat": 5.0759276101258575, "lon": -74.7236717732386, "alt_km": 26946.283512793943, "timestamp": "2025-12-21T18:54:57.221088+00:00", "meta": {"OBJECT_NAME": "CZ-7A R/B", "OBJECT_ID": "2025-277B", "EPOCH": "2025-12-18T08:54:45.891072", "MEAN_MOTION": 2.8884184, "ECCENTRICITY": 0.6879086, "INCLINATION": 14.3533, "RA_OF_ASC_NODE": 266.9093, "ARG_OF_PERICENTER": 194.6822, "MEAN_ANOMALY": 125.1782, "EPHEMERIS_TYPE": 0, "CLASSIFICATION_TYPE": "U", "NORAD_CAT_ID": 66550, "ELEMENT_SET_NO": 999, "REV_AT_EPOCH": 50, "BSTAR": 0.0030391, "MEAN_MOTION_DOT": 0.0266328, "MEAN_MOTION_DDOT": 1.4058e-06}, "tle": {"line1": "1 66550U 25277B   25352.37136448  .02663280  14058-5  30391-2 0  9996", "line2": "2 66550  14.3533 266.9093 6879086 194.6822 125.1782  2.88841840   508"}}, "geometry": {"type": "Point", "coordinates": [-74.7236717732386, 5.0759276101258575]}}, {"type": "Feature", "properties": {"norad_id": 66554, "name": "GLOBAL-33", "group": "last-30-days", "lat": -17.254340913554138, "lon": -15.42465423280455, "alt_km": 475.1203525771525, "timestamp": "2025-12-21T18:54:57.221117+00:00", "meta": {"OBJECT_NAME": "GLOBAL-33", "OBJECT_ID": "2025-267A", "EPOCH": "2025-12-20T10:09:54.490176", "MEAN_MOTION": 15.3162198, "ECCENTRICITY": 0.00038385, "INCLINATION": 42.0214, "RA_OF_ASC_NODE": 12.634, "ARG_OF_PERICENTER": 144.4876, "MEAN_ANOMALY": 215.6217, "EPHEMERIS_TYPE": 0, "CLASSIFICATION_TYPE": "U", "NORAD_CAT_ID": 66554, "ELEMENT_SET_NO": 999, "REV_AT_EPOCH": 458, "BSTAR": 0.00030721953, "MEAN_MOTION_DOT": 9.345e-05, "MEAN_MOTION_DDOT": 0}, "tle": {"line1": "1 66554U 25267A   25354.42354734  .00009345  00000+0  30722-3 0  9996", "line2": "2 66554  42.0214  12.6340 0003838 144.4876 215.6217 15.31621980  4580"}}, "geometry": {"type": "Point", "coordinates": [-15.42465423280455, -17.254340913554138]}}, {"type": "Feature", "properties": {"norad_id": 66557, "name": "STARLINK-35699", "group": "last-30-days", "lat": -34.265315885471374, "lon": 21.216876584448034, "alt_km": 400.3206189954017, "timestamp": "2025-12-21T18:54:57.221130+00:00", "meta": {"OBJECT_NAME": "STARLINK-35699", "OBJECT_ID": "2025-268A", "EPOCH": "2025-12-21T12:59:38.273280", "MEAN_MOTION": 15.56456212, "ECCENTRICITY": 0.00016898, "INCLINATION": 43.0004, "RA_OF_ASC_NODE": 69.6508, "ARG_OF_PERICENTER": 228.4829, "MEAN_ANOMALY": 131.5888, "EPHEMERIS_TYPE": 0, "CLASSIFICATION_TYPE": "U", "NORAD_CAT_ID": 66557, "ELEMENT_SET_NO": 999, "REV_AT_EPOCH": 599, "BSTAR": 0.0022658786, "MEAN_MOTION_DOT": 0.00167804, "MEAN_MOTION_DDOT": 0}, "tle": {"line1": "1 66557U 25268A   25355.54141520  .00167804  00000+0  22659-2 0  9995", "line2": "2 66557  43.0004  69.6508 0001689 228.4829 131.5888 15.56456212  5999"}}, "geometry": {"type": "Point", "coordinates": [21.216876584448034, -34.265315885471374]}}, {"type": "Feature", "properties": {"norad_id": 66558, "name": "STARLINK-35695", "group": "last-30-days", "lat": -33.367408567283036, "lon": 23.2258390398454, "alt_km": 400.7119864603301, "timestamp": "2025-12-21T18:54:57.221142+00:00", "meta": {"OBJECT_NAME": "STARLINK-35695", "OBJECT_ID": "2025-268B", "EPOCH": "2025-12-21T14:00:01.999872", "MEAN_MOTION": 15.56813169, "ECCENTRICITY": 0.00012558, "INCLINATION": 43.0011, "RA_OF_ASC_NODE": 69.4021, "ARG_OF_PERICENTER": 257.1084, "MEAN_ANOMALY": 340.1341, "EPHEMERIS_TYPE": 0, "CLASSIFICATION_TYPE": "U", "NORAD_CAT_ID": 66558, "ELEMENT_SET_NO": 999, "REV_AT_EPOCH": 608, "BSTAR": -0.018405488, "MEAN_MOTION_DOT": -0.01214776, "MEAN_MOTION_DDOT": 0}, "tle": {"line1": "1 66558U 25268B   25355.58335648 -.01214776  00000+0 -18405-1 0  9993", "line2": "2 66558  43.0011  69.4021 0001255 257.1084 340.1341 15.56813169  6088"}}, "geometry": {"type": "Point", "coordinates": [23.2258390398454, -33.367408567283036]}}, {"type": "Feature", "properties": {"norad_id": 66559, "name": "STARLINK-35419", "group": "last-30-days", "lat": -32.42516399456085, "lon": 25.21493820986022, "alt_km": 400.2097762288495, "timestamp": "2025-12-21T18:54:57.221154+00:00", "meta": {"OBJECT_NAME": "STARLINK-35419", "OBJECT_ID": "2025-268C", "EPOCH": "2025-12-21T14:00:01.999872", "MEAN_MOTION": 15.56410213, "ECCENTRICITY": 0.00013486, "INCLINATION": 43.001, "RA_OF_ASC_NODE": 69.3982, "ARG_OF_PERICENTER": 269.5231, "MEAN_ANOMALY": 329.7433, "EPHEMERIS_TYPE": 0, "CLASSIFICATION_TYPE": "U", "NORAD_CAT_ID": 66559, "ELEMENT_SET_NO": 999, "REV_AT_EPOCH": 608, "BSTAR": -0.00037566203, "MEAN_MOTION_DOT": -0.00027524, "MEAN_MOTION_DDOT": 0}, "tle": {"line1": "1 66559U 25268C   25355.58335648 -.00027524  00000+0 -37566-3 0  9997", "line2": "2 66559  43.0010  69.3982 0001348 269.5231 329.7433 15.56410213  6085"}}, "geometry": {"type": "Point", "coordinates": [25.21493820986022, -32.42516399456085]}}, {"type": "Feature", "properties": {"norad_id": 66560, "name": "STARLINK-35411", "group": "last-30-days", "lat": -31.455320637959787, "lon": 27.155136763839764, "alt_km": 400.1921480595747, "timestamp": "2025-12-21T18:54:57.221167+00:00", "meta": {"OBJECT_NAME": "STARLINK-35411", "OBJECT_ID": "2025-268D", "EPOCH": "2025-12-21T14:00:01.999872", "MEAN_MOTION": 15.56411071, "ECCENTRICITY": 0.00012997, "INCLINATION": 43.001, "RA_OF_ASC_NODE": 69.3934, "ARG_OF_PERICENTER": 269.4665, "MEAN_ANOMALY": 331.7155, "EPHEMERIS_TYPE": 0, "CLASSIFICATION_TYPE": "U", "NORAD_CAT_ID": 66560, "ELEMENT_SET_NO": 999, "REV_AT_EPOCH": 608, "BSTAR": -0.00034786512, "MEAN_MOTION_DOT": -0.00025522, "MEAN_MOTION_DDOT": 0}, "tle": {"line1": "1 66560U 25268D   25355.58335648 -.00025522  00000+0 -34787-3 0  9997", "line2": "2 66560  43.0010  69.3934 0001299 269.4665 331.7155 15.56411071  6086"}}, "geometry": {"type": "Point", "coordinates": [27.155136763839764, -31.455320637959787]}}, {"type": "Feature", "properties": {"norad_id": 66561, "name": "STARLINK-35305", "group": "last-30-days", "lat": -29.42852262582282, "lon": 30.919699724620497, "alt_km": 399.994070019181, "timestamp": "2025-12-21T18:54:57.221179+00:00", "meta": {"OBJECT_NAME": "STARLINK-35305", "OBJECT_ID": "2025-268E", "EPOCH": "2025-12-21T14:00:01.999872", "MEAN_MOTION": 15.56440601, "ECCENTRICITY": 0.00014904, "INCLINATION": 43.001, "RA_OF_ASC_NODE": 69.3837, "ARG_OF_PERICENTER": 266.8371, "MEAN_ANOMALY": 338.163, "EPHEMERIS_TYPE": 0, "CLASSIFICATION_TYPE": "U", "NORAD_CAT_ID": 66561, "ELEMENT_SET_NO": 999, "REV_AT_EPOCH": 604, "BSTAR": -0.00082886184, "MEAN_MOTION_DOT": -0.0006011, "MEAN_MOTION_DDOT": 0}, "tle": {"line1": "1 66561U 25268E   25355.58335648 -.00060110  00000+0 -82886-3 0  9993", "line2": "2 66561  43.0010  69.3837 0001490 266.8371 338.1630 15.56440601  6043"}}, "geometry": {"type": "Point", "coordinates": [30.919699724620497, -29.42852262582282]}}, {"type": "Feature", "properties": {"norad_id": 66562, "name": "STARLINK-35579", "group": "last-30-days", "lat": -30.457189531105254, "lon": 29.053470956554655, "alt_km": 400.164423130821, "timestamp": "2025-12-21T18:54:57.221213+00:00", "meta": {"OBJECT_NAME": "STARLINK-35579", "OBJECT_ID": "2025-268F", "EPOCH": "2025-12-21T14:00:01.999872", "MEAN_MOTION": 15.56409533, "ECCENTRICITY": 0.00013041, "INCLINATION": 43.001, "RA_OF_ASC_NODE": 69.3881, "ARG_OF_PERICENTER": 268.0254, "MEAN_ANOMALY": 335.0724, "EPHEMERIS_TYPE": 0, "CLASSIFICATION_TYPE": "U", "NORAD_CAT_ID": 66562, "ELEMENT_SET_NO": 999, "REV_AT_EPOCH": 608, "BSTAR": -0.00032726867, "MEAN_MOTION_DOT": -0.00024035, "MEAN_MOTION_DDOT": 0}, "tle": {"line1": "1 66562U 25268F   25355.58335648 -.00024035  00000+0 -32727-3 0  9999", "line2": "2 66562  43.0010  69.3881 0001304 268.0254 335.0724 15.56409533  6084"}}, "geometry": {"type": "Point", "coordinates": [29.053470956554655, -30.457189531105254]}}, {"type": "Feature", "properties": {"norad_id": 66563, "name": "STARLINK-35437", "group": "last-30-days", "lat": -28.380073979180953, "lon": 32.73749687059693, "alt_km": 400.1306007746607, "timestamp": "2025-12-21T18:54:57.221226+00:00", "meta": {"OBJECT_NAME": "STARLINK-35437", "OBJECT_ID": "2025-268G", "EPOCH": "2025-12-21T14:00:01.999872", "MEAN_MOTION": 15.56432801, "ECCENTRICITY": 0.00013077, "INCLINATION": 43.001, "RA_OF_ASC_NODE": 69.3787, "ARG_OF_PERICENTER": 259.2263, "MEAN_ANOMALY": 347.6885, "EPHEMERIS_TYPE": 0, "CLASSIFICATION_TYPE": "U", "NORAD_CAT_ID": 66563, "ELEMENT_SET_NO": 999, "REV_AT_EPOCH": 608, "BSTAR": -0.00061757108, "MEAN_MOTION_DOT": -0.00044952, "MEAN_MOTION_DDOT": 0}, "tle": {"line1": "1 66563U 25268G   25355.58335648 -.00044952  00000+0 -61757-3 0  9995", "line2": "2 66563  43.0010  69.3787 0001307 259.2263 347.6885 15.56432801  6086"}}, "geometry": {"type": "Point", "coordinates": [32.73749687059693, -28.380073979180953]}}]}